{"type": "FeatureCollection", "features": [ {"type": "Feature", "properties": {"norad_id": 33492, "name": "GOSAT (IBUKI)", "group": "resource", "lat": 49.49549147594514, "lon": 75.55334829366842, "alt_km": 663.8288288919184, "timestamp": "2025-12-02T08:59:32.376296+00:00", "meta": {"OBJECT_NAME": "GOSAT (IBUKI)", "OBJECT_ID": "2009-002A", "EPOCH": "2025-12-02T03:51:19.536192", "MEAN_MOTION": 14.67546629, "ECCENTRICITY": 9.98e-05, "INCLINATION": 98.0766, "RA_OF_ASC_NODE": 84.9112, "ARG_OF_PERICENTER": 84.2338, "MEAN_ANOMALY": 275.898, "EPHEMERIS_TYPE": 0, "CLASSIFICATION_TYPE": "U", "NORAD_CAT_ID": 33492, "ELEMENT_SET_NO": 999, "REV_AT_EPOCH": 90256, "BSTAR": 0.00020425, "MEAN_MOTION_DOT": 1.111e-05, "MEAN_MOTION_DDOT": 0}, "tle": {"line1": "1 33492U 09002A   25336.16064278  .00001111  00000+0  20425-3 0  9994", "line2": "2 33492  98.0766  84.9112 0000998  84.2338 275.8980 14.67546629902569"}}, "geometry": {"type": "Point", "coordinates": [75.55334829366842, 49.49549147594514]}}, {"type": "Feature", "properties": {"norad_id": 35681, "name": "DEIMOS-1", "group": "resource", "lat": -32.61170976935591, "lon": -47.51447758401088, "alt_km": 652.3098637411249, "timestamp": "2025-12-02T08:59:32.376308+00:00", "meta": {"OBJECT_NAME": "DEIMOS-1", "OBJECT_ID": "2009-041A", "EPOCH": "2025-12-02T04:46:26.857344", "MEAN_MOTION": 14.74925681, "ECCENTRICITY": 0.0002666, "INCLINATION": 97.7145, "RA_OF_ASC_NODE": 137.2935, "ARG_OF_PERICENTER": 98.7938, "MEAN_ANOMALY": 261.3574, "EPHEMERIS_TYPE": 0, "CLASSIFICATION_TYPE": "U", "NORAD_CAT_ID": 35681, "ELEMENT_SET_NO": 999, "REV_AT_EPOCH": 87784, "BSTAR": 0.00013823, "MEAN_MOTION_DOT": 8.81e-06, "MEAN_MOTION_DDOT": 0}, "tle": {"line1": "1 35681U 09041A   25336.19892196  .00000881  00000+0  13823-3 0  9997", "line2": "2 35681  97.7145 137.2935 0002666  98.7938 261.3574 14.74925681877841"}}, "geometry": {"type": "Point", "coordinates": [-47.51447758401088, -32.61170976935591]}}, {"type": "Feature", "properties": {"norad_id": 35682, "name": "DUBAISAT-1", "group": "resource", "lat": 18.830226790789318, "lon": -70.05078621959359, "alt_km": 653.948749289656, "timestamp": "2025-12-02T08:59:32.376319+00:00", "meta": {"OBJECT_NAME": "DUBAISAT-1", "OBJECT_ID": "2009-041B", "EPOCH": "2025-12-01T22:29:36.780864", "MEAN_MOTION": 14.74553028, "ECCENTRICITY": 0.0010246, "INCLINATION": 97.9785, "RA_OF_ASC_NODE": 106.777, "ARG_OF_PERICENTER": 351.216, "MEAN_ANOMALY": 8.8867, "EPHEMERIS_TYPE": 0, "CLASSIFICATION_TYPE": "U", "NORAD_CAT_ID": 35682, "ELEMENT_SET_NO": 999, "REV_AT_EPOCH": 87602, "BSTAR": 0.00022492, "MEAN_MOTION_DOT": 1.448e-05, "MEAN_MOTION_DDOT": 0}, "tle": {"line1": "1 35682U 09041B   25335.93723126  .00001448  00000+0  22492-3 0  9997", "line2": "2 35682  97.9785 106.7770 0010246 351.2160   8.8867 14.74553028876029"}}, "geometry": {"type": "Point", "coordinates": [-70.05078621959359, 18.830226790789318]}}, {"type": "Feature", "properties": {"norad_id": 35931, "name": "OCEANSAT-2", "group": "resource", "lat": -69.64061600904243, "lon": 135.091562888969, "alt_km": 914.4734110348345, "timestamp": "2025-12-02T08:59:32.376330+00:00", "meta": {"OBJECT_NAME": "OCEANSAT-2", "OBJECT_ID": "2009-051A", "EPOCH": "2025-12-02T04:21:53.384832", "MEAN_MOTION": 13.9962682, "ECCENTRICITY": 0.0016667, "INCLINATION": 98.2232, "RA_OF_ASC_NODE": 337.8528, "ARG_OF_PERICENTER": 72.4172, "MEAN_ANOMALY": 287.8814, "EPHEMERIS_TYPE": 0, "CLASSIFICATION_TYPE": "U", "NORAD_CAT_ID": 35931, "ELEMENT_SET_NO": 999, "REV_AT_EPOCH": 85177, "BSTAR": -8.3538e-05, "MEAN_MOTION_DOT": -1.6e-06, "MEAN_MOTION_DDOT": 0}, "tle": {"line1": "1 35931U 09051A   25336.18186788 -.00000160  00000+0 -83538-4 0  9991", "line2": "2 35931  98.2232 337.8528 0016667  72.4172 287.8814 13.99626820851776"}}, "geometry": {"type": "Point", "coordinates": [135.091562888969, -69.64061600904243]}}, {"type": "Feature", "properties": {"norad_id": 35946, "name": "WORLDVIEW-2 (WV-2)", "group": "resource", "lat": 34.592606277203544, "lon": 41.70005362614972, "alt_km": 761.8469101852725, "timestamp": "2025-12-02T08:59:32.376340+00:00", "meta": {"OBJECT_NAME": "WORLDVIEW-2 (WV-2)", "OBJECT_ID": "2009-055A", "EPOCH": "2025-12-02T03:49:07.968864", "MEAN_MOTION": 14.37644536, "ECCENTRICITY": 0.0005441, "INCLINATION": 98.4773, "RA_OF_ASC_NODE": 47.3913, "ARG_OF_PERICENTER": 92.1985, "MEAN_ANOMALY": 267.9825, "EPHEMERIS_TYPE": 0, "CLASSIFICATION_TYPE": "U", "NORAD_CAT_ID": 35946, "ELEMENT_SET_NO": 999, "REV_AT_EPOCH": 84733, "BSTAR": 8.7495e-05, "MEAN_MOTION_DOT": 2.19e-06, "MEAN_MOTION_DDOT": 0}, "tle": {"line1": "1 35946U 09055A   25336.15912001  .00000219  00000+0  87495-4 0  9992", "line2": "2 35946  98.4773  47.3913 0005441  92.1985 267.9825 14.37644536847339"}}, "geometry": {"type": "Point", "coordinates": [41.70005362614972, 34.592606277203544]}}, {"type": "Feature", "properties": {"norad_id": 36036, "name": "SMOS", "group": "resource", "lat": -7.425327852850334, "lon": 162.68440457458644, "alt_km": 762.9201544087518, "timestamp": "2025-12-02T08:59:32.376351+00:00", "meta": {"OBJECT_NAME": "SMOS", "OBJECT_ID": "2009-059A", "EPOCH": "2025-12-02T02:21:20.121984", "MEAN_MOTION": 14.39786553, "ECCENTRICITY": 0.0001056, "INCLINATION": 98.4384, "RA_OF_ASC_NODE": 161.3035, "ARG_OF_PERICENTER": 72.1063, "MEAN_ANOMALY": 288.024, "EPHEMERIS_TYPE": 0, "CLASSIFICATION_TYPE": "U", "NORAD_CAT_ID": 36036, "ELEMENT_SET_NO": 999, "REV_AT_EPOCH": 84509, "BSTAR": 0.00016854, "MEAN_MOTION_DOT": 4.85e-06, "MEAN_MOTION_DDOT": 0}, "tle": {"line1": "1 36036U 09059A   25336.09814956  .00000485  00000+0  16854-3 0  9995", "line2": "2 36036  98.4384 161.3035 0001056  72.1063 288.0240 14.39786553845097"}}, "geometry": {"type": "Point", "coordinates": [162.68440457458644, -7.425327852850334]}}, {"type": "Feature", "properties": {"norad_id": 36110, "name": "YAOGAN-7", "group": "resource", "lat": -22.669332297079126, "lon": 34.787807504353765, "alt_km": 648.6516324212462, "timestamp": "2025-12-02T08:59:32.376362+00:00", "meta": {"OBJECT_NAME": "YAOGAN-7", "OBJECT_ID": "2009-069A", "EPOCH": "2025-12-02T03:12:00.304704", "MEAN_MOTION": 14.77705569, "ECCENTRICITY": 0.0023853, "INCLINATION": 98.0304, "RA_OF_ASC_NODE": 217.9279, "ARG_OF_PERICENTER": 317.0847, "MEAN_ANOMALY": 42.8501, "EPHEMERIS_TYPE": 0, "CLASSIFICATION_TYPE": "U", "NORAD_CAT_ID": 36110, "ELEMENT_SET_NO": 999, "REV_AT_EPOCH": 86052, "BSTAR": 0.00012541, "MEAN_MOTION_DOT": 8.49e-06, "MEAN_MOTION_DDOT": 0}, "tle": {"line1": "1 36110U 09069A   25336.13333686  .00000849  00000+0  12541-3 0  9993", "line2": "2 36110  98.0304 217.9279 0023853 317.0847  42.8501 14.77705569860527"}}, "geometry": {"type": "Point", "coordinates": [34.787807504353765, -22.669332297079126]}}, {"type": "Feature", "properties": {"norad_id": 36605, "name": "TANDEM-X", "group": "resource", "lat": -14.510648011748017, "lon": -16.15447420296916, "alt_km": 513.5179844346039, "timestamp": "2025-12-02T08:59:32.376372+00:00", "meta": {"OBJECT_NAME": "TANDEM-X", "OBJECT_ID": "2010-030A", "EPOCH": "2025-12-01T15:40:02.616384", "MEAN_MOTION": 15.19150166, "ECCENTRICITY": 0.0001799, "INCLINATION": 97.4445, "RA_OF_ASC_NODE": 341.1948, "ARG_OF_PERICENTER": 94.6739, "MEAN_ANOMALY": 265.4701, "EPHEMERIS_TYPE": 0, "CLASSIFICATION_TYPE": "U", "NORAD_CAT_ID": 36605, "ELEMENT_SET_NO": 999, "REV_AT_EPOCH": 85665, "BSTAR": 8.3295316e-05, "MEAN_MOTION_DOT": 1.682e-05, "MEAN_MOTION_DDOT": 0}, "tle": {"line1": "1 36605U 10030A   25335.65280806  .00001682  00000+0  83295-4 0  9994", "line2": "2 36605  97.4445 341.1948 0001799  94.6739 265.4701 15.19150166856659"}}, "geometry": {"type": "Point", "coordinates": [-16.15447420296916, -14.510648011748017]}}, {"type": "Feature", "properties": {"norad_id": 36795, "name": "CARTOSAT-2B", "group": "resource", "lat": 82.05095020179417, "lon": -75.73991216983987, "alt_km": 617.1260767538533, "timestamp": "2025-12-02T08:59:32.376383+00:00", "meta": {"OBJECT_NAME": "CARTOSAT-2B", "OBJECT_ID": "2010-035A", "EPOCH": "2025-12-02T03:42:29.915424", "MEAN_MOTION": 14.78761097, "ECCENTRICITY": 0.0012849, "INCLINATION": 97.7868, "RA_OF_ASC_NODE": 25.5279, "ARG_OF_PERICENTER": 108.6349, "MEAN_ANOMALY": 251.6259, "EPHEMERIS_TYPE": 0, "CLASSIFICATION_TYPE": "U", "NORAD_CAT_ID": 36795, "ELEMENT_SET_NO": 999, "REV_AT_EPOCH": 83073, "BSTAR": 0.00013575, "MEAN_MOTION_DOT": 9.48e-06, "MEAN_MOTION_DDOT": 0}, "tle": {"line1": "1 36795U 10035A   25336.15451291  .00000948  00000+0  13575-3 0  9990", "line2": "2 36795  97.7868  25.5279 0012849 108.6349 251.6259 14.78761097830733"}}, "geometry": {"type": "Point", "coordinates": [-75.73991216983987, 82.05095020179417]}}, {"type": "Feature", "properties": {"norad_id": 36834, "name": "YAOGAN-10", "group": "resource", "lat": -44.31445073825464, "lon": 4.079945092578518, "alt_km": 622.398213809679, "timestamp": "2025-12-02T08:59:32.376393+00:00", "meta": {"OBJECT_NAME": "YAOGAN-10", "OBJECT_ID": "2010-038A", "EPOCH": "2025-12-02T04:44:29.539104", "MEAN_MOTION": 14.84544997, "ECCENTRICITY": 0.0001504, "INCLINATION": 97.9151, "RA_OF_ASC_NODE": 356.0973, "ARG_OF_PERICENTER": 84.9392, "MEAN_ANOMALY": 4.3164, "EPHEMERIS_TYPE": 0, "CLASSIFICATION_TYPE": "U", "NORAD_CAT_ID": 36834, "ELEMENT_SET_NO": 999, "REV_AT_EPOCH": 82797, "BSTAR": 0.00012812, "MEAN_MOTION_DOT": 1.027e-05, "MEAN_MOTION_DDOT": 0}, "tle": {"line1": "1 36834U 10038A   25336.19756411  .00001027  00000+0  12812-3 0  9995", "line2": "2 36834  97.9151 356.0973 0001504  84.9392   4.3164 14.84544997827972"}}, "geometry": {"type": "Point", "coordinates": [4.079945092578518, -44.31445073825464]}}]}